OBJECT_NAME,OBJECT_ID,EPOCH,MEAN_MOTION,ECCENTRICITY,INCLINATION,RA_OF_ASC_NODE,ARG_OF_PERICENTER,MEAN_ANOMALY,EPHEMERIS_TYPE,CLASSIFICATION_TYPE,NORAD_CAT_ID,ELEMENT_SET_NO,REV_AT_EPOCH,BSTAR,MEAN_MOTION_DOT,MEAN_MOTION_DDOT
ONEWEB-0572,2023-004M,2026-07-23T23:14:55.474368,13.17648326,.00019751,87.9154,358.5491,91.8879,268.2479,0,U,55151,999,17232,-.74636805E-4,-.16E-6,0
ONEWEB-0573,2023-004N,2026-07-24T07:04:01.258464,13.18684634,.00026762,87.9200,328.0904,90.0318,270.1120,0,U,55152,999,17458,.20986966E-3,.96E-6,0
ONEWEB-0588,2023-004P,2026-07-24T06:54:18.308160,13.18687347,.00019328,87.9200,328.0914,83.5182,276.6170,0,U,55153,999,17458,.10507016E-3,.54E-6,0
ONEWEB-0598,2023-004Q,2026-07-24T00:16:42.622752,13.11415682,.0002545,87.8893,13.7356,94.5420,265.5999,0,U,55154,999,17072,.60693371E-3,.228E-5,0
ONEWEB-0599,2023-004R,2026-07-23T20:29:40.822944,13.17647504,.00019705,87.9154,358.5703,100.6468,259.4885,0,U,55155,999,17231,.13930541E-3,.67E-6,0
ONEWEB-0614,2023-004S,2026-07-24T00:09:23.225184,13.11416347,.00017166,87.8876,13.7454,91.5733,268.5591,0,U,55156,999,17066,.11648455E-2,.426E-5,0
ONEWEB-0616,2023-004T,2026-07-23T23:19:46.667424,13.17648075,.00019835,87.9158,358.5520,105.6341,254.5010,0,U,55157,999,17254,-.19600463E-3,-.63E-6,0
ONEWEB-0617,2023-004U,2026-07-24T05:21:52.818336,13.11418818,.00017306,87.8897,13.6947,80.0470,280.0853,0,U,55158,999,17071,.14728341E-2,.535E-5,0
ONEWEB-0618,2023-004V,2026-07-24T06:54:08.703072,15.13474730,.00138721,86.9112,162.5706,144.4665,215.7502,0,U,55159,999,18787,.36352623E-3,.6547E-4,0
ONEWEB-0619,2023-004W,2026-07-23T09:31:09.561216,13.17647742,.0001433,87.9163,358.6493,97.6583,262.4712,0,U,55160,999,17236,.45479E-4,.31E-6,0
ONEWEB-0620,2023-004X,2026-07-23T23:44:57.895008,13.11418948,.00020618,87.8888,13.7475,88.7310,271.4054,0,U,55161,999,17065,.12476163E-2,.455E-5,0
ONEWEB-0621,2023-004Y,2026-07-23T22:34:10.233408,13.11414561,.00016168,87.8892,13.7496,87.4862,272.6451,0,U,55162,999,17062,-.68432468E-4,-.12E-6,0
ONEWEB-0622,2023-004Z,2026-07-24T00:31:21.426528,13.11414443,.00018751,87.8897,13.7367,69.5736,290.5593,0,U,55163,999,17062,-.50692405E-3,-.167E-5,0
ONEWEB-0623,2023-004AA,2026-07-23T09:23:52.748736,13.17648549,.0001321,87.9151,358.6762,72.0657,288.0618,0,U,55164,999,17235,.57506E-5,.15E-6,0
ONEWEB-0624,2023-004AB,2026-07-24T07:24:28.764864,13.12928329,.00016203,87.8995,343.2014,89.7379,270.3936,0,U,55165,999,17294,.67075261E-3,.256E-5,0
ONEWEB-0625,2023-004AC,2026-07-23T09:09:17.687808,13.17648172,.0001754,87.9156,358.6750,99.2931,260.8399,0,U,55166,999,17234,.11929E-3,.59E-6,0
ONEWEB-0626,2023-004AD,2026-07-23T23:29:30.975936,13.17648745,.00021444,87.9158,358.5554,95.1670,264.9706,0,U,55167,999,17242,.49889003E-4,.32E-6,0
ONEWEB-0627,2023-004AE,2026-07-23T23:12:30.106368,13.17648932,.00014763,87.9162,358.5588,82.9276,277.2024,0,U,55168,999,17242,-.23676715E-3,-.79E-6,0
ONEWEB-0628,2023-004AF,2026-07-24T07:17:28.675968,13.12439653,.00012507,87.8989,343.2763,85.3181,274.8090,0,U,55169,999,17290,.96540078E-3,.36E-5,0
ONEWEB-0629,2023-004AG,2026-07-24T07:43:59.516832,13.17650315,.00015322,87.9156,358.4836,97.9468,262.1837,0,U,55170,999,17247,.7198305E-4,.41E-6,0
ONEWEB-0631,2023-004AH,2026-07-24T06:44:35.643840,13.18687606,.00024195,87.9202,328.0615,90.5625,269.5784,0,U,55171,999,17456,.88558054E-4,.48E-6,0
ONEWEB-0709,2023-004AJ,2026-07-23T21:40:27.248160,13.11419201,.00027085,87.8891,13.7672,92.7072,267.4366,0,U,55172,999,17068,.24131518E-3,.98E-6,0
ONEWEB-0710,2023-004AK,2026-07-23T22:57:55.299456,13.17641945,.00017598,87.9160,358.5541,77.4446,282.6882,0,U,55173,999,17242,.29413513E-2,.1155E-4,0
ONEWEB-0711,2023-004AL,2026-07-23T22:48:48.267360,13.11416002,.00015408,87.8891,13.7460,68.6303,291.4989,0,U,55174,999,17065,-.97848315E-3,-.334E-5,0
ONEWEB-0713,2023-004AM,2026-07-23T21:25:48.077184,13.11418383,.00016346,87.8906,13.7596,80.8125,279.3188,0,U,55175,999,17063,-.79503505E-3,-.269E-5,0
ONEWEB-0715,2023-004AN,2026-07-24T00:58:12.698400,13.11417629,.00024511,87.8893,13.7308,85.3562,274.7846,0,U,55176,999,17069,-.13234747E-2,-.456E-5,0
ONEWEB-0716,2023-004AP,2026-07-23T22:48:11.956896,13.17648421,.00018733,87.9154,358.5557,100.8087,259.3256,0,U,55177,999,17242,.29486201E-4,.24E-6,0
ONEWEB-0717,2023-004AQ,2026-07-23T22:23:53.629440,13.17648188,.00018034,87.9164,358.5503,76.5345,283.5988,0,U,55178,999,17247,.42415E-5,.15E-6,0
ONEWEB-0719,2023-004AR,2026-07-23T20:49:07.144320,13.17647662,.00017218,87.9165,358.5435,99.1582,260.9744,0,U,55179,999,17241,.13479332E-3,.65E-6,0
ONEWEB-0530,2023-029A,2026-07-24T03:14:23.623296,13.20770228,.00017026,87.9165,267.1026,89.0007,271.1322,0,U,55796,999,16602,.85648755E-4,.48E-6,0
