{"epoch":1784902576,"count":18312,"objects":[{"id":"55151","name":"ONEWEB-0572","type":"PAYLOAD","l1":"1 55151U 23004M   26204.96869762 -.00000016  00000-0 -74637-4 0  9993","l2":"2 55151  87.9154 358.5491 0001975  91.8879 268.2479 13.17648326172326"},{"id":"55152","name":"ONEWEB-0573","type":"PAYLOAD","l1":"1 55152U 23004N   26205.29445901  .00000096  00000-0  20987-3 0  9990","l2":"2 55152  87.9200 328.0904 0002676  90.0318 270.1120 13.18684634174586"},{"id":"55153","name":"ONEWEB-0588","type":"PAYLOAD","l1":"1 55153U 23004P   26205.28771190  .00000054  00000-0  10507-3 0  9993","l2":"2 55153  87.9200 328.0914 0001933  83.5182 276.6170 13.18687347174589"},{"id":"55154","name":"ONEWEB-0598","type":"PAYLOAD","l1":"1 55154U 23004Q   26205.01160443  .00000228  00000-0  60693-3 0  9992","l2":"2 55154  87.8893  13.7356 0002545  94.5420 265.5999 13.11415682170724"},{"id":"55155","name":"ONEWEB-0599","type":"PAYLOAD","l1":"1 55155U 23004R   26204.85394471  .00000067  00000-0  13931-3 0  9998","l2":"2 55155  87.9154 358.5703 0001970 100.6468 259.4885 13.17647504172313"},{"id":"55156","name":"ONEWEB-0614","type":"PAYLOAD","l1":"1 55156U 23004S   26205.00651881  .00000426  00000-0  11648-2 0  9999","l2":"2 55156  87.8876  13.7454 0001717  91.5733 268.5591 13.11416347170663"},{"id":"55157","name":"ONEWEB-0616","type":"PAYLOAD","l1":"1 55157U 23004T   26204.97206791 -.00000063  00000-0 -19600-3 0  9997","l2":"2 55157  87.9158 358.5520 0001983 105.6341 254.5010 13.17648075172540"},{"id":"55158","name":"ONEWEB-0617","type":"PAYLOAD","l1":"1 55158U 23004U   26205.22352799  .00000535  00000-0  14728-2 0  9994","l2":"2 55158  87.8897  13.6947 0001731  80.0470 280.0853 13.11418818170712"},{"id":"55159","name":"ONEWEB-0618","type":"PAYLOAD","l1":"1 55159U 23004V   26205.28760073  .00006547  00000-0  36353-3 0  9997","l2":"2 55159  86.9112 162.5706 0013872 144.4665 215.7502 15.13474730187870"},{"id":"55160","name":"ONEWEB-0619","type":"PAYLOAD","l1":"1 55160U 23004W   26204.39663844  .00000031  00000-0  45479-4 0  9990","l2":"2 55160  87.9163 358.6493 0001433  97.6583 262.4712 13.17647742172365"},{"id":"55161","name":"ONEWEB-0620","type":"PAYLOAD","l1":"1 55161U 23004X   26204.98955897  .00000455  00000-0  12476-2 0  9997","l2":"2 55161  87.8888  13.7475 0002062  88.7310 271.4054 13.11418948170653"},{"id":"55162","name":"ONEWEB-0621","type":"PAYLOAD","l1":"1 55162U 23004Y   26204.94039622 -.00000012  00000-0 -68432-4 0  9999","l2":"2 55162  87.8892  13.7496 0001617  87.4862 272.6451 13.11414561170623"},{"id":"55163","name":"ONEWEB-0622","type":"PAYLOAD","l1":"1 55163U 23004Z   26205.02177577 -.00000167  00000-0 -50692-3 0  9991","l2":"2 55163  87.8897  13.7367 0001875  69.5736 290.5593 13.11414443170628"},{"id":"55164","name":"ONEWEB-0623","type":"PAYLOAD","l1":"1 55164U 23004AA  26204.39158274  .00000015  00000-0  57506-5 0  9997","l2":"2 55164  87.9151 358.6762 0001321  72.0657 288.0618 13.17648549172354"},{"id":"55165","name":"ONEWEB-0624","type":"PAYLOAD","l1":"1 55165U 23004AB  26205.30866626  .00000256  00000-0  67075-3 0  9994","l2":"2 55165  87.8995 343.2014 0001620  89.7379 270.3936 13.12928329172942"},{"id":"55166","name":"ONEWEB-0625","type":"PAYLOAD","l1":"1 55166U 23004AC  26204.38145472  .00000059  00000-0  11929-3 0  9999","l2":"2 55166  87.9156 358.6750 0001754  99.2931 260.8399 13.17648172172349"},{"id":"55167","name":"ONEWEB-0626","type":"PAYLOAD","l1":"1 55167U 23004AD  26204.97883074  .00000032  00000-0  49889-4 0  9990","l2":"2 55167  87.9158 358.5554 0002144  95.1670 264.9706 13.17648745172424"},{"id":"55168","name":"ONEWEB-0627","type":"PAYLOAD","l1":"1 55168U 23004AE  26204.96701512 -.00000079  00000-0 -23677-3 0  9995","l2":"2 55168  87.9162 358.5588 0001476  82.9276 277.2024 13.17648932172428"},{"id":"55169","name":"ONEWEB-0628","type":"PAYLOAD","l1":"1 55169U 23004AF  26205.30380412  .00000360  00000-0  96540-3 0  9997","l2":"2 55169  87.8989 343.2763 0001251  85.3181 274.8090 13.12439653172906"},{"id":"55170","name":"ONEWEB-0629","type":"PAYLOAD","l1":"1 55170U 23004AG  26205.32221663  .00000041  00000-0  71983-4 0  9994","l2":"2 55170  87.9156 358.4836 0001532  97.9468 262.1837 13.17650315172479"},{"id":"55171","name":"ONEWEB-0631","type":"PAYLOAD","l1":"1 55171U 23004AH  26205.28096810  .00000048  00000-0  88558-4 0  9997","l2":"2 55171  87.9202 328.0615 0002420  90.5625 269.5784 13.18687606174569"},{"id":"55172","name":"ONEWEB-0709","type":"PAYLOAD","l1":"1 55172U 23004AJ  26204.90309315  .00000098  00000-0  24132-3 0  9995","l2":"2 55172  87.8891  13.7672 0002709  92.7072 267.4366 13.11419201170683"},{"id":"55173","name":"ONEWEB-0710","type":"PAYLOAD","l1":"1 55173U 23004AK  26204.95689004  .00001155  00000-0  29414-2 0  9999","l2":"2 55173  87.9160 358.5541 0001760  77.4446 282.6882 13.17641945172424"},{"id":"55174","name":"ONEWEB-0711","type":"PAYLOAD","l1":"1 55174U 23004AL  26204.95055865 -.00000334  00000-0 -97848-3 0  9999","l2":"2 55174  87.8891  13.7460 0001541  68.6303 291.4989 13.11416002170653"},{"id":"55175","name":"ONEWEB-0713","type":"PAYLOAD","l1":"1 55175U 23004AM  26204.89291756 -.00000269  00000-0 -79504-3 0  9990","l2":"2 55175  87.8906  13.7596 0001635  80.8125 279.3188 13.11418383170631"},{"id":"55176","name":"ONEWEB-0715","type":"PAYLOAD","l1":"1 55176U 23004AN  26205.04042475 -.00000456  00000-0 -13235-2 0  9997","l2":"2 55176  87.8893  13.7308 0002451  85.3562 274.7846 13.11417629170698"},{"id":"55177","name":"ONEWEB-0716","type":"PAYLOAD","l1":"1 55177U 23004AP  26204.95013839  .00000024  00000-0  29486-4 0  9995","l2":"2 55177  87.9154 358.5557 0001873 100.8087 259.3256 13.17648421172427"},{"id":"55178","name":"ONEWEB-0717","type":"PAYLOAD","l1":"1 55178U 23004AQ  26204.93325960  .00000015  00000-0  42415-5 0  9993","l2":"2 55178  87.9164 358.5503 0001803  76.5345 283.5988 13.17648188172475"},{"id":"55179","name":"ONEWEB-0719","type":"PAYLOAD","l1":"1 55179U 23004AR  26204.86744380  .00000065  00000-0  13479-3 0  9998","l2":"2 55179  87.9165 358.5435 0001722  99.1582 260.9744 13.17647662172414"},{"id":"55796","name":"ONEWEB-0530","type":"PAYLOAD","l1":"1 55796U 23029A   26205.13499564  .00000048  00000-0  85649-4 0  9992","l2":"2 55796  87.9165 267.1026 0001703  89.0007 271.1322 13.20770228166024"}]}